NORAD_CAT_ID,OBJECT_NAME,OBJECT_TYPE,EPOCH,MEAN_MOTION,ECCENTRICITY,INCLINATION,RA_OF_ASC_NODE,ARG_OF_PERICENTER,MEAN_ANOMALY,BSTAR,MEAN_MOTION_DOT,MEAN_MOTION_DDOT,TLE_LINE0,TLE_LINE1,TLE_LINE2,SEMIMAJOR_AXIS,PERIOD,APOGEE,PERIGEE,DECAYED
51862.0,STARLINK-3508,PAYLOAD,2023-02-05 17:20:35,15.08835036,0.0001321,53.2164,32.7661,102.2517,257.8623,6.7289e-06,-1.81e-06,0.0,0 STARLINK-3508,1 51862U 22022L   23036.72262814 -.00000181  00000-0  67289-5 0  9994,2 51862  53.2164  32.7661 0001321 102.2517 257.8623 15.08835036 52880,6917.896,95.438,540.674,538.847,0.0
51862.0,STARLINK-3508,PAYLOAD,2023-02-06 09:14:26,15.08842081,0.0001383,53.2162,29.7922,99.8913,260.2236,3.2776e-06,-2.36e-06,0.0,0 STARLINK-3508,1 51862U 22022L   23037.38502459 -.00000236  00000-0  32776-5 0  9993,2 51862  53.2162  29.7922 0001383  99.8913 260.2236 15.08842081 52980,6917.874,95.437,540.696,538.782,0.0
51862.0,STARLINK-3508,PAYLOAD,2023-02-07 05:54:25,15.08852639,0.0001334,53.2162,25.9272,93.5523,266.5622,7.2549e-05,8.67e-06,0.0,0 STARLINK-3508,1 51862U 22022L   23038.24613400  .00000867  00000-0  72549-4 0  9998,2 51862  53.2162  25.9272 0001334  93.5523 266.5622 15.08852639 53114,6917.842,95.437,540.63,538.784,0.0
51862.0,STARLINK-3508,PAYLOAD,2023-02-07 09:05:12,15.08854738,0.0001367,53.2167,25.3329,93.7377,266.3772,7.5246e-05,9.1e-06,0.0,0 STARLINK-3508,1 51862U 22022L   23038.37861146  .00000910  00000-0  75246-4 0  9990,2 51862  53.2167  25.3329 0001367  93.7377 266.3772 15.08854738 53139,6917.835,95.437,540.646,538.755,0.0
51862.0,STARLINK-3508,PAYLOAD,2023-02-08 05:45:13,15.08846484,0.0001053,53.2167,21.4672,87.2445,272.8667,3.625e-05,2.89e-06,0.0,0 STARLINK-3508,1 51862U 22022L   23039.23973907  .00000289  00000-0  36250-4 0  9996,2 51862  53.2167  21.4672 0001053  87.2445 272.8667 15.08846484 53261,6917.861,95.437,540.454,538.997,0.0
51862.0,STARLINK-3508,PAYLOAD,2023-02-08 07:20:37,15.08841516,0.0001125,53.2178,21.1719,92.689,267.4231,-3.4701e-05,-8.4e-06,0.0,0 STARLINK-3508,1 51862U 22022L   23039.30598385 -.00000840  00000-0 -34701-4 0  9991,2 51862  53.2178  21.1719 0001125  92.6890 267.4231 15.08841516 53275,6917.876,95.437,540.519,538.962,0.0
51862.0,STARLINK-3508,PAYLOAD,2023-02-09 05:36:01,15.08835938,0.00011,53.2171,17.0105,98.1212,261.9905,-0.00010921,-2.025e-05,0.0,0 STARLINK-3508,1 51862U 22022L   23040.23335294 -.00002025  00000-0 -10921-3 0  9997,2 51862  53.2171  17.0105 0001100  98.1212 261.9905 15.08835938 53417,6917.893,95.438,540.519,538.997,0.0
51862.0,STARLINK-3508,PAYLOAD,2023-02-09 07:11:24,15.08839682,0.0001007,53.2177,16.7112,81.8745,278.2361,-8.7297e-05,-1.677e-05,0.0,0 STARLINK-3508,1 51862U 22022L   23040.29958962 -.00001677  00000-0 -87297-4 0  9999,2 51862  53.2177  16.7112 0001007  81.8745 278.2361 15.08839682 53421,6917.881,95.438,540.443,539.05,0.0
51862.0,STARLINK-3508,PAYLOAD,2023-02-10 05:26:47,15.08854107,9.21e-05,53.2175,12.5481,98.9623,261.1473,0.00010427,1.373e-05,0.0,0 STARLINK-3508,1 51862U 22022L   23041.22693684  .00001373  00000-0  10427-3 0  9991,2 51862  53.2175  12.5481 0000921  98.9623 261.1473 15.08854107 53569,6917.837,95.437,540.339,539.065,0.0
51862.0,STARLINK-3508,PAYLOAD,2023-02-11 05:17:33,15.08862074,0.0001022,53.2166,8.0866,116.732,243.3777,0.00021723,3.173e-05,0.0,0 STARLINK-3508,1 51862U 22022L   23042.22052800  .00003173  00000-0  21723-3 0  9992,2 51862  53.2166   8.0866 0001022 116.7320 243.3777 15.08862074 53710,6917.813,95.436,540.385,538.971,0.0
51862.0,STARLINK-3508,PAYLOAD,2023-02-11 21:11:26,15.08843031,0.000149,53.218,5.114,84.7383,275.3779,1.3042e-05,-8e-07,0.0,0 STARLINK-3508,1 51862U 22022L   23042.88294880 -.00000080  00000-0  13042-4 0  9991,2 51862  53.2180   5.1140 0001490  84.7383 275.3779 15.08843031 53811,6917.871,95.437,540.767,538.705,0.0
51862.0,STARLINK-3508,PAYLOAD,2023-02-12 03:32:59,15.08836651,0.0001334,53.2183,3.9216,79.9922,280.1221,-1.6973e-05,-5.58e-06,0.0,0 STARLINK-3508,1 51862U 22022L   23043.14791084 -.00000558  00000-0 -16973-4 0  9996,2 51862  53.2183   3.9216 0001334  79.9922 280.1221 15.08836651 53856,6917.891,95.438,540.678,538.833,0.0
51862.0,STARLINK-3508,PAYLOAD,2023-02-12 14:40:41,15.08835924,0.0001457,53.2197,1.8402,76.6742,283.4412,-0.00012004,-2.198e-05,0.0,0 STARLINK-3508,1 51862U 22022L   23043.61159597 -.00002198  00000-0 -12004-3 0  9997,2 51862  53.2197   1.8402 0001457  76.6742 283.4412 15.08835924 53923,6917.893,95.438,540.766,538.75,0.0
51862.0,STARLINK-3508,PAYLOAD,2023-02-13 06:34:31,15.08857459,0.0001307,53.2161,358.8683,104.9134,255.2003,-9.1099e-05,-1.738e-05,0.0,0 STARLINK-3508,1 51862U 22022L   23044.27398086 -.00001738  00000-0 -91099-4 0  9999,2 51862  53.2161 358.8683 0001307 104.9134 255.2003 15.08857459 54026,6917.827,95.436,540.596,538.788,0.0
51862.0,STARLINK-3508,PAYLOAD,2023-02-13 14:31:29,15.08831741,0.0002187,53.2177,357.3804,91.0056,269.1187,-0.00031311,-5.267e-05,0.0,0 STARLINK-3508,1 51862U 22022L   23044.60520779 -.00005267  00000-0 -31311-3 0  9993,2 51862  53.2177 357.3804 0002187  91.0056 269.1187 15.08831741 54076,6917.906,95.438,541.284,538.258,0.0
51862.0,STARLINK-3508,PAYLOAD,2023-02-14 06:25:19,15.08836013,0.0001276,53.2169,354.4068,88.0437,272.0701,0.00011201,1.495e-05,0.0,0 STARLINK-3508,1 51862U 22022L   23045.26759239  .00001495  00000-0  11201-3 0  9994,2 51862  53.2169 354.4068 0001276  88.0437 272.0701 15.08836013 54177,6917.893,95.438,540.64,538.875,0.0
51862.0,STARLINK-3508,PAYLOAD,2023-02-15 12:37:40,15.08843861,0.0001054,53.2172,348.7582,70.42,289.6906,-5.357e-05,-1.14e-05,0.0,0 STARLINK-3508,1 51862U 22022L   23046.52615747 -.00001140  00000-0 -53570-4 0  9994,2 51862  53.2172 348.7582 0001054  70.4200 289.6906 15.08843861 54366,6917.869,95.437,540.463,539.004,0.0
51862.0,STARLINK-3508,PAYLOAD,2023-02-15 20:34:35,15.0883281,8.76e-05,53.2181,347.2708,61.3799,298.7281,7.8626e-05,9.64e-06,0.0,0 STARLINK-3508,1 51862U 22022L   23046.85736010  .00000964  00000-0  78626-4 0  9997,2 51862  53.2181 347.2708 0000876  61.3799 298.7281 15.08832810 54418,6917.902,95.438,540.373,539.161,0.0
51862.0,STARLINK-3508,PAYLOAD,2023-02-15 23:45:20,15.08854604,0.0001248,53.2179,346.6765,120.918,239.1935,0.00025642,3.797e-05,0.0,0 STARLINK-3508,1 51862U 22022L   23046.98981961  .00003797  00000-0  25642-3 0  9994,2 51862  53.2179 346.6765 0001248 120.9180 239.1935 15.08854604 54433,6917.836,95.437,540.564,538.837,0.0
51862.0,STARLINK-3508,PAYLOAD,2023-02-16 12:28:25,15.08868944,6.56e-05,53.2179,344.299,44.7045,315.4,-1.2136e-05,-4.81e-06,0.0,0 STARLINK-3508,1 51862U 22022L   23047.51973456 -.00000481  00000-0 -12136-4 0  9998,2 51862  53.2179 344.2990 0000656  44.7045 315.4000 15.08868944 54514,6917.792,95.436,540.111,539.203,0.0
51862.0,STARLINK-3508,PAYLOAD,2023-02-16 23:36:11,15.08814035,0.0001444,53.2174,342.2168,62.5796,297.5343,-0.00033052,-5.541e-05,0.0,0 STARLINK-3508,1 51862U 22022L   23047.98346927 -.00005541  00000-0 -33052-3 0  9997,2 51862  53.2174 342.2168 0001444  62.5796 297.5343 15.08814035 54580,6917.96,95.439,540.824,538.826,0.0
51862.0,STARLINK-3508,PAYLOAD,2023-02-17 05:57:42,15.08831673,0.0001318,53.2172,341.0266,67.4441,292.6691,-0.00014972,-2.669e-05,0.0,0 STARLINK-3508,1 51862U 22022L   23048.24841428 -.00002669  00000-0 -14972-3 0  9991,2 51862  53.2172 341.0266 0001318  67.4441 292.6691 15.08831673 54629,6917.906,95.438,540.683,538.859,0.0
51862.0,STARLINK-3508,PAYLOAD,2023-02-17 12:19:16,15.08815244,0.0001356,53.217,339.8377,68.9051,291.2086,-0.00020075,-3.479e-05,0.0,0 STARLINK-3508,1 51862U 22022L   23048.51338914 -.00003479  00000-0 -20075-3 0  9993,2 51862  53.2170 339.8377 0001356  68.9051 291.2086 15.08815244 54663,6917.956,95.439,540.759,538.883,0.0
51862.0,STARLINK-3508,PAYLOAD,2023-02-18 01:02:20,15.0884825,0.0001584,53.2185,337.4594,77.6705,282.4464,-8.2185e-05,-1.596e-05,0.0,0 STARLINK-3508,1 51862U 22022L   23049.04328850 -.00001596  00000-0 -82185-4 0  9999,2 51862  53.2185 337.4594 0001584  77.6705 282.4464 15.08848250 54744,6917.855,95.437,540.816,538.624,0.0
51862.0,STARLINK-3508,PAYLOAD,2023-02-18 02:37:42,15.0885793,0.0001174,53.2176,337.1637,75.2773,284.8349,1.0167e-05,-1.26e-06,0.0,0 STARLINK-3508,1 51862U 22022L   23049.10951701 -.00000126  00000-0  10167-4 0  9991,2 51862  53.2176 337.1637 0001174  75.2773 284.8349 15.08857930 54757,6917.826,95.436,540.503,538.878,0.0
51862.0,STARLINK-3508,PAYLOAD,2023-02-18 12:10:01,15.08849063,0.0001483,53.2179,335.3777,75.1492,284.9664,-4.3361e-05,-9.78e-06,0.0,0 STARLINK-3508,1 51862U 22022L   23049.50696299 -.00000978  00000-0 -43361-4 0  9991,2 51862  53.2179 335.3777 0001483  75.1492 284.9664 15.08849063 54811,6917.853,95.437,540.744,538.692,0.0
51862.0,STARLINK-3508,PAYLOAD,2023-02-19 00:53:07,15.08824917,0.0001649,53.2176,332.9994,82.643,277.4749,0.00024451,3.604e-05,0.0,0 STARLINK-3508,1 51862U 22022L   23050.03689062  .00003604  00000-0  24451-3 0  9996,2 51862  53.2176 332.9994 0001649  82.6430 277.4749 15.08824917 54891,6917.926,95.439,540.932,538.651,0.0
51862.0,STARLINK-3508,PAYLOAD,2023-02-19 12:00:48,15.08841337,0.00015,53.2164,330.9176,86.3453,273.771,0.00012096,1.638e-05,0.0,0 STARLINK-3508,1 51862U 22022L   23050.50056557  .00001638  00000-0  12096-3 0  9992,2 51862  53.2164 330.9176 0001500  86.3453 273.7710 15.08841337 54960,6917.876,95.437,540.779,538.704,0.0
51862.0,STARLINK-3508,PAYLOAD,2023-02-20 11:51:35,15.08848117,0.0001191,53.2159,326.4548,104.3627,255.7497,-0.00010629,-1.979e-05,0.0,0 STARLINK-3508,1 51862U 22022L   23051.49416438 -.00001979  00000-0 -10629-3 0  9999,2 51862  53.2159 326.4548 0001191 104.3627 255.7497 15.08848117 55110,6917.856,95.437,540.544,538.897,0.0
51862.0,STARLINK-3508,PAYLOAD,2023-02-20 22:59:18,15.08837615,0.0001576,53.2161,324.3749,90.651,269.4663,-3.4172e-05,-8.32e-06,0.0,0 STARLINK-3508,1 51862U 22022L   23051.95785000 -.00000832  00000-0 -34172-4 0  9991,2 51862  53.2161 324.3749 0001576  90.6510 269.4663 15.08837615 55183,6917.888,95.438,540.843,538.662,0.0
